{
  "norad_id": 60097,
  "name": "STARLINK-32003",
  "history": [
    {
      "epoch": "2026-05-03T07:52:17.540256Z",
      "apogee_km": 476.0773627269273,
      "perigee_km": 474.3899258068959,
      "latitude_deg": 5.438901162228633e-05,
      "longitude_deg": 163.9004078982778,
      "height_km": 476.0118637911807,
      "semi_major_axis_km": 6853.370644266911,
      "eccentricity": 0.00012311,
      "inclination_deg": 53.1597,
      "raan_deg": 143.2067,
      "arg_perigee_deg": 81.8311,
      "mean_anomaly_deg": 278.283,
      "mean_motion_rev_day": 15.30193779
    },
    {
      "epoch": "2026-05-04T18:21:28.101312Z",
      "apogee_km": 476.117985939919,
      "perigee_km": 474.3799672562527,
      "latitude_deg": -5.4176981656142715e-06,
      "longitude_deg": -1.4848464720150885,
      "height_km": 476.0491878385051,
      "semi_major_axis_km": 6853.385976598085,
      "eccentricity": 0.0001268,
      "inclination_deg": 53.16,
      "raan_deg": 136.5318,
      "arg_perigee_deg": 83.5331,
      "mean_anomaly_deg": 276.5814,
      "mean_motion_rev_day": 15.30188644
    },
    {
      "epoch": "2026-05-05T06:53:53.454336Z",
      "apogee_km": 476.11171782023393,
      "perigee_km": 474.35177272644796,
      "latitude_deg": -6.9654556088789275e-06,
      "longitude_deg": 167.46739789083801,
      "height_km": 476.04136671043307,
      "semi_major_axis_km": 6853.368745273341,
      "eccentricity": 0.0001284,
      "inclination_deg": 53.1601,
      "raan_deg": 134.1047,
      "arg_perigee_deg": 84.2309,
      "mean_anomaly_deg": 275.8838,
      "mean_motion_rev_day": 15.30194415
    },
    {
      "epoch": "2026-05-06T09:32:48.775200Z",
      "apogee_km": 476.2028953880608,
      "perigee_km": 474.35123997525534,
      "latitude_deg": -5.919553336576278e-05,
      "longitude_deg": 121.48512788293341,
      "height_km": 476.08351410792756,
      "semi_major_axis_km": 6853.414067681658,
      "eccentricity": 0.00013509,
      "inclination_deg": 53.1604,
      "raan_deg": 128.9474,
      "arg_perigee_deg": 84.3237,
      "mean_anomaly_deg": 275.7917,
      "mean_motion_rev_day": 15.30179236
    },
    {
      "epoch": "2026-05-07T16:53:52.145664Z",
      "apogee_km": 476.0246202076687,
      "perigee_km": 474.4579379330744,
      "latitude_deg": 3.404520415572466e-05,
      "longitude_deg": 3.866611819181702,
      "height_km": 476.17293933338635,
      "semi_major_axis_km": 6853.378279070372,
      "eccentricity": 0.0001143,
      "inclination_deg": 53.1595,
      "raan_deg": 122.8804,
      "arg_perigee_deg": 92.4491,
      "mean_anomaly_deg": 267.6641,
      "mean_motion_rev_day": 15.30191222
    },
    {
      "epoch": "2026-05-08T16:24:39.888864Z",
      "apogee_km": 476.04901161942325,
      "perigee_km": 474.446690241276,
      "latitude_deg": -1.599616254935513e-05,
      "longitude_deg": 5.649386228065688,
      "height_km": 476.2141721206773,
      "semi_major_axis_km": 6853.384850930349,
      "eccentricity": 0.0001169,
      "inclination_deg": 53.1595,
      "raan_deg": 118.3278,
      "arg_perigee_deg": 94.8804,
      "mean_anomaly_deg": 265.233,
      "mean_motion_rev_day": 15.30189021
    },
    {
      "epoch": "2026-05-09T15:55:28.168608Z",
      "apogee_km": 476.0327516386242,
      "perigee_km": 474.4605854250631,
      "latitude_deg": -1.0376320796941463e-06,
      "longitude_deg": 7.432068097688503,
      "height_km": 476.18126749614146,
      "semi_major_axis_km": 6853.383668531844,
      "eccentricity": 0.0001147,
      "inclination_deg": 53.1594,
      "raan_deg": 113.7773,
      "arg_perigee_deg": 92.6558,
      "mean_anomaly_deg": 267.4574,
      "mean_motion_rev_day": 15.30189417
    },
    {
      "epoch": "2026-05-10T15:26:15.855648Z",
      "apogee_km": 476.0318454694834,
      "perigee_km": 474.4308986177739,
      "latitude_deg": 3.744432955089811e-05,
      "longitude_deg": 9.217344738998184,
      "height_km": 476.14490680222013,
      "semi_major_axis_km": 6853.368372043628,
      "eccentricity": 0.0001168,
      "inclination_deg": 53.1596,
      "raan_deg": 109.2269,
      "arg_perigee_deg": 91.1003,
      "mean_anomaly_deg": 269.0132,
      "mean_motion_rev_day": 15.3019454
    },
    {
      "epoch": "2026-05-11T14:57:03.650688Z",
      "apogee_km": 476.0255474707956,
      "perigee_km": 474.44927135662965,
      "latitude_deg": 4.372352924250274e-05,
      "longitude_deg": 11.00204703599961,
      "height_km": 476.1182668082489,
      "semi_major_axis_km": 6853.374409413712,
      "eccentricity": 0.000115,
      "inclination_deg": 53.1597,
      "raan_deg": 104.6764,
      "arg_perigee_deg": 88.7393,
      "mean_anomaly_deg": 271.374,
      "mean_motion_rev_day": 15.30192518
    },
    {
      "epoch": "2026-05-12T05:03:32.635296Z",
      "apogee_km": 476.0476548905908,
      "perigee_km": 474.4306693189037,
      "latitude_deg": 2.345570293103058e-05,
      "longitude_deg": 156.0714657219887,
      "height_km": 476.0957034755248,
      "semi_major_axis_km": 6853.376162104747,
      "eccentricity": 0.00011797,
      "inclination_deg": 53.1599,
      "raan_deg": 101.946,
      "arg_perigee_deg": 87.0476,
      "mean_anomaly_deg": 273.066,
      "mean_motion_rev_day": 15.30191931
    },
    {
      "epoch": "2026-05-13T04:34:20.580672Z",
      "apogee_km": 476.0347019134397,
      "perigee_km": 474.4325209319013,
      "latitude_deg": 7.916233297254476e-05,
      "longitude_deg": 157.85517769232746,
      "height_km": 476.05464115048335,
      "semi_major_axis_km": 6853.370611422671,
      "eccentricity": 0.00011689,
      "inclination_deg": 53.1597,
      "raan_deg": 97.3951,
      "arg_perigee_deg": 84.4738,
      "mean_anomaly_deg": 275.6397,
      "mean_motion_rev_day": 15.3019379
    }
  ]
}